1 08820U 76039A   03363.85188290 -.00000012  00000-0  10000-3 0    55
2 08820 109.8372 248.5958 0044205 259.7136  99.8616  6.38664587389551
